STARLINK-32222          
1 60435U 24144L   26068.71696127 -.00000071  00000+0  97565-5 0  9999
2 60435  53.1603 216.9816 0001848  47.2647 312.8509 15.30184598 89315
TRANSPORTER-12 OBJECT AZ
1 62656U 25009AZ  26068.71026235  .00016057  00000+0  54903-3 0  9991
2 62656  97.3981 151.9913 0000987  45.3581 314.7740 15.30349724 63792
